{
  "type": "FeatureCollection",
  "features": [
    {
      "type": "Feature",
      "properties": {
        "norad_id": 35585,
        "name": "COSMOS 2251 DEB",
        "group": "cosmos-2251-debris",
        "lat": -8.034583957945596,
        "lon": -39.214379143971875,
        "alt_km": 1090.7185526316862,
        "timestamp": "2025-12-27T21:25:02.913192+00:00",
        "meta_object_name": "COSMOS 2251 DEB",
        "meta_object_id": "1993-036AMC",
        "meta_epoch": "2025-12-27T06:04:47.108064",
        "meta_mean_motion": 13.75285255,
        "meta_eccentricity": 0.0310141,
        "meta_inclination": 73.972,
        "meta_ra_of_asc_node": 324.1776,
        "meta_arg_of_pericenter": 233.5607,
        "meta_mean_anomaly": 192.1911,
        "meta_ephemeris_type": 0,
        "meta_classification_type": "U",
        "meta_norad_cat_id": 35585,
        "meta_element_set_no": 999,
        "meta_rev_at_epoch": 64263,
        "meta_bstar": 0.00094745,
        "meta_mean_motion_dot": 1.266e-05,
        "meta_mean_motion_ddot": 0,
        "tle_line1": "1 35585U 93036AMC 25361.25332301  .00001266  00000+0  94745-3 0  9999",
        "tle_line2": "2 35585  73.9720 324.1776 0310141 233.5607 192.1911 13.75285255642630"
      },
      "geometry": {
        "type": "Point",
        "coordinates": [
          -39.214379143971875,
          -8.034583957945596
        ]
      }
    },
    {
      "type": "Feature",
      "properties": {
        "norad_id": 35586,
        "name": "COSMOS 2251 DEB",
        "group": "cosmos-2251-debris",
        "lat": -7.735464451367709,
        "lon": -84.0274302655757,
        "alt_km": 1345.692196378127,
        "timestamp": "2025-12-27T21:25:02.913202+00:00",
        "meta_object_name": "COSMOS 2251 DEB",
        "meta_object_id": "1993-036AMD",
        "meta_epoch": "2025-12-26T12:34:40.833408",
        "meta_mean_motion": 13.5209486,
        "meta_eccentricity": 0.0404139,
        "meta_inclination": 74.0201,
        "meta_ra_of_asc_node": 280.3945,
        "meta_arg_of_pericenter": 152.7777,
        "meta_mean_anomaly": 23.2121,
        "meta_ephemeris_type": 0,
        "meta_classification_type": "U",
        "meta_norad_cat_id": 35586,
        "meta_element_set_no": 999,
        "meta_rev_at_epoch": 60568,
        "meta_bstar": 0.00041333,
        "meta_mean_motion_dot": 4.35e-06,
        "meta_mean_motion_ddot": 0,
        "tle_line1": "1 35586U 93036AMD 25360.52408372  .00000435  00000+0  41333-3 0  9993",
        "tle_line2": "2 35586  74.0201 280.3945 0404139 152.7777  23.2121 13.52094860605685"
      },
      "geometry": {
        "type": "Point",
        "coordinates": [
          -84.0274302655757,
          -7.735464451367709
        ]
      }
    },
    {
      "type": "Feature",
      "properties": {
        "norad_id": 35587,
        "name": "COSMOS 2251 DEB",
        "group": "cosmos-2251-debris",
        "lat": -67.1339209520192,
        "lon": -108.22949961207196,
        "alt_km": 607.7556050786761,
        "timestamp": "2025-12-27T21:25:02.913213+00:00",
        "meta_object_name": "COSMOS 2251 DEB",
        "meta_object_id": "1993-036AME",
        "meta_epoch": "2025-12-24T09:03:29.515680",
        "meta_mean_motion": 14.7155971,
        "meta_eccentricity": 0.01022451,
        "meta_inclination": 74.0058,
        "meta_ra_of_asc_node": 35.7588,
        "meta_arg_of_pericenter": 220.8718,
        "meta_mean_anomaly": 138.4757,
        "meta_ephemeris_type": 0,
        "meta_classification_type": "U",
        "meta_norad_cat_id": 35587,
        "meta_element_set_no": 999,
        "meta_rev_at_epoch": 66517,
        "meta_bstar": 0.00025641607,
        "meta_mean_motion_dot": 1.692e-05,
        "meta_mean_motion_ddot": 0,
        "tle_line1": "1 35587U 93036AME 25358.37742495  .00001692  00000+0  25642-3 0  9992",
        "tle_line2": "2 35587  74.0058  35.7588 0102245 220.8718 138.4757 14.71559710665172"
      },
      "geometry": {
        "type": "Point",
        "coordinates": [
          -108.22949961207196,
          -67.1339209520192
        ]
      }
    },
    {
      "type": "Feature",
      "properties": {
        "norad_id": 35593,
        "name": "COSMOS 2251 DEB",
        "group": "cosmos-2251-debris",
        "lat": 40.26992257041468,
        "lon": -84.83467512959328,
        "alt_km": 858.6712730094305,
        "timestamp": "2025-12-27T21:25:02.913223+00:00",
        "meta_object_name": "COSMOS 2251 DEB",
        "meta_object_id": "1993-036AML",
        "meta_epoch": "2025-12-24T00:35:28.875264",
        "meta_mean_motion": 14.25635831,
        "meta_eccentricity": 0.01050685,
        "meta_inclination": 74.0857,
        "meta_ra_of_asc_node": 268.1373,
        "meta_arg_of_pericenter": 272.0988,
        "meta_mean_anomaly": 86.8131,
        "meta_ephemeris_type": 0,
        "meta_classification_type": "U",
        "meta_norad_cat_id": 35593,
        "meta_element_set_no": 999,
        "meta_rev_at_epoch": 85226,
        "meta_bstar": 0.00070261528,
        "meta_mean_motion_dot": 1.738e-05,
        "meta_mean_motion_ddot": 0,
        "tle_line1": "1 35593U 93036AML 25358.02463976  .00001738  00000+0  70262-3 0  9994",
        "tle_line2": "2 35593  74.0857 268.1373 0105068 272.0988  86.8131 14.25635831852262"
      },
      "geometry": {
        "type": "Point",
        "coordinates": [
          -84.83467512959328,
          40.26992257041468
        ]
      }
    },
    {
      "type": "Feature",
      "properties": {
        "norad_id": 35594,
        "name": "COSMOS 2251 DEB",
        "group": "cosmos-2251-debris",
        "lat": 26.034018359806826,
        "lon": -112.27415237694744,
        "alt_km": 584.9346026379908,
        "timestamp": "2025-12-27T21:25:02.913234+00:00",
        "meta_object_name": "COSMOS 2251 DEB",
        "meta_object_id": "1993-036AMM",
        "meta_epoch": "2025-12-24T13:41:05.114112",
        "meta_mean_motion": 14.88271884,
        "meta_eccentricity": 0.00288579,
        "meta_inclination": 73.806,
        "meta_ra_of_asc_node": 82.6068,
        "meta_arg_of_pericenter": 193.3523,
        "meta_mean_anomaly": 166.6896,
        "meta_ephemeris_type": 0,
        "meta_classification_type": "U",
        "meta_norad_cat_id": 35594,
        "meta_element_set_no": 999,
        "meta_rev_at_epoch": 88361,
        "meta_bstar": 0.0016876649,
        "meta_mean_motion_dot": 0.00015714,
        "meta_mean_motion_ddot": 0,
        "tle_line1": "1 35594U 93036AMM 25358.57019808  .00015714  00000+0  16877-2 0  9996",
        "tle_line2": "2 35594  73.8060  82.6068 0028857 193.3523 166.6896 14.88271884883617"
      },
      "geometry": {
        "type": "Point",
        "coordinates": [
          -112.27415237694744,
          26.034018359806826
        ]
      }
    },
    {
      "type": "Feature",
      "properties": {
        "norad_id": 35602,
        "name": "COSMOS 2251 DEB",
        "group": "cosmos-2251-debris",
        "lat": -41.18844996261146,
        "lon": 135.06106269384503,
        "alt_km": 479.9325362582849,
        "timestamp": "2025-12-27T21:25:02.913244+00:00",
        "meta_object_name": "COSMOS 2251 DEB",
        "meta_object_id": "1993-036AMV",
        "meta_epoch": "2025-12-26T19:19:37.155360",
        "meta_mean_motion": 15.35665906,
        "meta_eccentricity": 0.00877374,
        "meta_inclination": 73.9943,
        "meta_ra_of_asc_node": 151.9485,
        "meta_arg_of_pericenter": 214.5989,
        "meta_mean_anomaly": 213.8576,
        "meta_ephemeris_type": 0,
        "meta_classification_type": "U",
        "meta_norad_cat_id": 35602,
        "meta_element_set_no": 999,
        "meta_rev_at_epoch": 90307,
        "meta_bstar": 0.00067564138,
        "meta_mean_motion_dot": 0.00026679,
        "meta_mean_motion_ddot": 0,
        "tle_line1": "1 35602U 93036AMV 25360.80529115  .00026679  00000+0  67564-3 0  9994",
        "tle_line2": "2 35602  73.9943 151.9485 0087737 214.5989 213.8576 15.35665906903073"
      },
      "geometry": {
        "type": "Point",
        "coordinates": [
          135.06106269384503,
          -41.18844996261146
        ]
      }
    },
    {
      "type": "Feature",
      "properties": {
        "norad_id": 35605,
        "name": "COSMOS 2251 DEB",
        "group": "cosmos-2251-debris",
        "lat": 63.97465979349587,
        "lon": 87.32513551889575,
        "alt_km": 442.5424110592303,
        "timestamp": "2025-12-27T21:25:02.913254+00:00",
        "meta_object_name": "COSMOS 2251 DEB",
        "meta_object_id": "1993-036AMY",
        "meta_epoch": "2025-12-22T14:36:44.008416",
        "meta_mean_motion": 15.38179315,
        "meta_eccentricity": 0.00228045,
        "meta_inclination": 73.869,
        "meta_ra_of_asc_node": 315.1978,
        "meta_arg_of_pericenter": 235.9327,
        "meta_mean_anomaly": 123.9715,
        "meta_ephemeris_type": 0,
        "meta_classification_type": "U",
        "meta_norad_cat_id": 35605,
        "meta_element_set_no": 999,
        "meta_rev_at_epoch": 66123,
        "meta_bstar": 0.0066900453,
        "meta_mean_motion_dot": 0.00262511,
        "meta_mean_motion_ddot": 0,
        "tle_line1": "1 35605U 93036AMY 25356.60884269  .00262511  00000+0  66900-2 0  9993",
        "tle_line2": "2 35605  73.8690 315.1978 0022804 235.9327 123.9715 15.38179315661234"
      },
      "geometry": {
        "type": "Point",
        "coordinates": [
          87.32513551889575,
          63.97465979349587
        ]
      }
    }
  ]
}